{"type": "FeatureCollection", "features": [{"type": "Feature", "properties": {"norad_id": 22490, "name": "SCD 1", "group": "resource", "lat": 10.157341200725185, "lon": -50.23796037959184, "alt_km": 727.1758782203133, "timestamp": "2025-12-11T08:58:26.770497+00:00", "meta": {"OBJECT_NAME": "SCD 1", "OBJECT_ID": "1993-009B", "EPOCH": "2025-12-11T03:59:44.672064", "MEAN_MOTION": 14.45997207, "ECCENTRICITY": 0.0041757, "INCLINATION": 24.9702, "RA_OF_ASC_NODE": 288.3992, "ARG_OF_PERICENTER": 308.3035, "MEAN_ANOMALY": 73.9895, "EPHEMERIS_TYPE": 0, "CLASSIFICATION_TYPE": "U", "NORAD_CAT_ID": 22490, "ELEMENT_SET_NO": 999, "REV_AT_EPOCH": 73387, "BSTAR": 0.00014716, "MEAN_MOTION_DOT": 7.24e-06, "MEAN_MOTION_DDOT": 0}, "tle": {"line1": "1 22490U 93009B   25345.16648926  .00000724  00000+0  14716-3 0  9993", "line2": "2 22490  24.9702 288.3992 0041757 308.3035  73.9895 14.45997207733877"}}, "geometry": {"type": "Point", "coordinates": [-50.23796037959184, 10.157341200725185]}}, {"type": "Feature", "properties": {"norad_id": 25397, "name": "TECHSAT 1B (GO-32)", "group": "resource", "lat": 9.189461420166955, "lon": -32.91335716021447, "alt_km": 811.2594255488984, "timestamp": "2025-12-11T08:58:26.770523+00:00", "meta": {"OBJECT_NAME": "TECHSAT 1B (GO-32)", "OBJECT_ID": "1998-043D", "EPOCH": "2025-12-11T05:33:31.561056", "MEAN_MOTION": 14.24376315, "ECCENTRICITY": 0.0002096, "INCLINATION": 98.9919, "RA_OF_ASC_NODE": 328.4089, "ARG_OF_PERICENTER": 59.8118, "MEAN_ANOMALY": 300.3267, "EPHEMERIS_TYPE": 0, "CLASSIFICATION_TYPE": "U", "NORAD_CAT_ID": 25397, "ELEMENT_SET_NO": 999, "REV_AT_EPOCH": 42457, "BSTAR": 8.9913e-05, "MEAN_MOTION_DOT": 1.61e-06, "MEAN_MOTION_DDOT": 0}, "tle": {"line1": "1 25397U 98043D   25345.23161529  .00000161  00000+0  89913-4 0  9999", "line2": "2 25397  98.9919 328.4089 0002096  59.8118 300.3267 14.24376315424575"}}, "geometry": {"type": "Point", "coordinates": [-32.91335716021447, 9.189461420166955]}}, {"type": "Feature", "properties": {"norad_id": 25504, "name": "SCD 2", "group": "resource", "lat": 21.302601166101454, "lon": -152.85357687403513, "alt_km": 741.493059178797, "timestamp": "2025-12-11T08:58:26.770538+00:00", "meta": {"OBJECT_NAME": "SCD 2", "OBJECT_ID": "1998-060A", "EPOCH": "2025-12-11T04:28:20.004096", "MEAN_MOTION": 14.45421882, "ECCENTRICITY": 0.0016613, "INCLINATION": 24.9931, "RA_OF_ASC_NODE": 151.4748, "ARG_OF_PERICENTER": 297.0504, "MEAN_ANOMALY": 224.1124, "EPHEMERIS_TYPE": 0, "CLASSIFICATION_TYPE": "U", "NORAD_CAT_ID": 25504, "ELEMENT_SET_NO": 999, "REV_AT_EPOCH": 43309, "BSTAR": 0.00010877, "MEAN_MOTION_DOT": 5.72e-06, "MEAN_MOTION_DDOT": 0}, "tle": {"line1": "1 25504U 98060A   25345.18634264  .00000572  00000+0  10877-3 0  9991", "line2": "2 25504  24.9931 151.4748 0016613 297.0504 224.1124 14.45421882433094"}}, "geometry": {"type": "Point", "coordinates": [-152.85357687403513, 21.302601166101454]}}, {"type": "Feature", "properties": {"norad_id": 25757, "name": "DLR-TUBSAT", "group": "resource", "lat": 81.33476336369037, "lon": -121.757480059228, "alt_km": 713.3180526228671, "timestamp": "2025-12-11T08:58:26.770551+00:00", "meta": {"OBJECT_NAME": "DLR-TUBSAT", "OBJECT_ID": "1999-029B", "EPOCH": "2025-12-11T05:15:08.540640", "MEAN_MOTION": 14.5235671, "ECCENTRICITY": 0.0013809, "INCLINATION": 98.6563, "RA_OF_ASC_NODE": 329.6857, "ARG_OF_PERICENTER": 197.5136, "MEAN_ANOMALY": 162.5584, "EPHEMERIS_TYPE": 0, "CLASSIFICATION_TYPE": "U", "NORAD_CAT_ID": 25757, "ELEMENT_SET_NO": 999, "REV_AT_EPOCH": 40596, "BSTAR": 7.1438e-05, "MEAN_MOTION_DOT": 2.43e-06, "MEAN_MOTION_DDOT": 0}, "tle": {"line1": "1 25757U 99029B   25345.21884885  .00000243  00000+0  71438-4 0  9993", "line2": "2 25757  98.6563 329.6857 0013809 197.5136 162.5584 14.52356710405967"}}, "geometry": {"type": "Point", "coordinates": [-121.757480059228, 81.33476336369037]}}, {"type": "Feature", "properties": {"norad_id": 25994, "name": "TERRA", "group": "resource", "lat": 66.8817260521595, "lon": -123.72084841029309, "alt_km": 681.2908258275202, "timestamp": "2025-12-11T08:58:26.770564+00:00", "meta": {"OBJECT_NAME": "TERRA", "OBJECT_ID": "1999-068A", "EPOCH": "2025-12-11T03:48:34.889760", "MEAN_MOTION": 14.60898913, "ECCENTRICITY": 0.0003601, "INCLINATION": 97.9751, "RA_OF_ASC_NODE": 36.9013, "ARG_OF_PERICENTER": 97.7068, "MEAN_ANOMALY": 322.9844, "EPHEMERIS_TYPE": 0, "CLASSIFICATION_TYPE": "U", "NORAD_CAT_ID": 25994, "ELEMENT_SET_NO": 999, "REV_AT_EPOCH": 38215, "BSTAR": 0.00016123, "MEAN_MOTION_DOT": 7.44e-06, "MEAN_MOTION_DDOT": 0}, "tle": {"line1": "1 25994U 99068A   25345.15873715  .00000744  00000+0  16123-3 0  9997", "line2": "2 25994  97.9751  36.9013 0003601  97.7068 322.9844 14.60898913382158"}}, "geometry": {"type": "Point", "coordinates": [-123.72084841029309, 66.8817260521595]}}, {"type": "Feature", "properties": {"norad_id": 27004, "name": "MAROC-TUBSAT", "group": "resource", "lat": -5.230336994233954, "lon": -27.110788266008147, "alt_km": 999.3239751925712, "timestamp": "2025-12-11T08:58:26.770575+00:00", "meta": {"OBJECT_NAME": "MAROC-TUBSAT", "OBJECT_ID": "2001-056D", "EPOCH": "2025-12-11T05:26:35.023200", "MEAN_MOTION": 13.70252758, "ECCENTRICITY": 0.0019093, "INCLINATION": 99.7912, "RA_OF_ASC_NODE": 153.6453, "ARG_OF_PERICENTER": 264.1827, "MEAN_ANOMALY": 275.8386, "EPHEMERIS_TYPE": 0, "CLASSIFICATION_TYPE": "U", "NORAD_CAT_ID": 27004, "ELEMENT_SET_NO": 999, "REV_AT_EPOCH": 20044, "BSTAR": 4.2688e-05, "MEAN_MOTION_DOT": -9e-08, "MEAN_MOTION_DDOT": 0}, "tle": {"line1": "1 27004U 01056D   25345.22679425 -.00000009  00000+0  42688-4 0  9992", "line2": "2 27004  99.7912 153.6453 0019093 264.1827 275.8386 13.70252758200440"}}, "geometry": {"type": "Point", "coordinates": [-27.110788266008147, -5.230336994233954]}}, {"type": "Feature", "properties": {"norad_id": 27424, "name": "AQUA", "group": "resource", "lat": -17.644372199899124, "lon": -51.07424022748409, "alt_km": 692.8103307952861, "timestamp": "2025-12-11T08:58:26.770587+00:00", "meta": {"OBJECT_NAME": "AQUA", "OBJECT_ID": "2002-022A", "EPOCH": "2025-12-11T04:43:12.917856", "MEAN_MOTION": 14.61802805, "ECCENTRICITY": 0.0001024, "INCLINATION": 98.4036, "RA_OF_ASC_NODE": 306.0506, "ARG_OF_PERICENTER": 115.4514, "MEAN_ANOMALY": 14.6405, "EPHEMERIS_TYPE": 0, "CLASSIFICATION_TYPE": "U", "NORAD_CAT_ID": 27424, "ELEMENT_SET_NO": 999, "REV_AT_EPOCH": 25580, "BSTAR": 0.00034822, "MEAN_MOTION_DOT": 1.689e-05, "MEAN_MOTION_DDOT": 0}, "tle": {"line1": "1 27424U 02022A   25345.19667729  .00001689  00000+0  34822-3 0  9996", "line2": "2 27424  98.4036 306.0506 0001024 115.4514  14.6405 14.61802805255804"}}, "geometry": {"type": "Point", "coordinates": [-51.07424022748409, -17.644372199899124]}}, {"type": "Feature", "properties": {"norad_id": 28051, "name": "IRS-P6 (RESOURCESAT-1)", "group": "resource", "lat": -26.325464675925378, "lon": 29.94396771176952, "alt_km": 816.2134220554444, "timestamp": "2025-12-11T08:58:26.770598+00:00", "meta": {"OBJECT_NAME": "IRS-P6 (RESOURCESAT-1)", "OBJECT_ID": "2003-046A", "EPOCH": "2025-12-11T04:25:05.256768", "MEAN_MOTION": 14.36073139, "ECCENTRICITY": 0.0064036, "INCLINATION": 98.2177, "RA_OF_ASC_NODE": 25.6627, "ARG_OF_PERICENTER": 185.3662, "MEAN_ANOMALY": 246.9033, "EPHEMERIS_TYPE": 0, "CLASSIFICATION_TYPE": "U", "NORAD_CAT_ID": 28051, "ELEMENT_SET_NO": 999, "REV_AT_EPOCH": 15354, "BSTAR": 5.0825e-05, "MEAN_MOTION_DOT": 1.1e-06, "MEAN_MOTION_DDOT": 0}, "tle": {"line1": "1 28051U 03046A   25345.18408862  .00000110  00000+0  50825-4 0  9990", "line2": "2 28051  98.2177  25.6627 0064036 185.3662 246.9033 14.36073139153542"}}, "geometry": {"type": "Point", "coordinates": [29.94396771176952, -26.325464675925378]}}, {"type": "Feature", "properties": {"norad_id": 28220, "name": "SHIYAN-1 (SY-1)", "group": "resource", "lat": 63.99751769777346, "lon": -116.64451637833338, "alt_km": 478.4412119774079, "timestamp": "2025-12-11T08:58:26.770609+00:00", "meta": {"OBJECT_NAME": "SHIYAN-1 (SY-1)", "OBJECT_ID": "2004-012A", "EPOCH": "2025-12-11T03:45:31.275072", "MEAN_MOTION": 15.28073699, "ECCENTRICITY": 0.0005674, "INCLINATION": 97.8932, "RA_OF_ASC_NODE": 46.601, "ARG_OF_PERICENTER": 332.2791, "MEAN_ANOMALY": 27.8144, "EPHEMERIS_TYPE": 0, "CLASSIFICATION_TYPE": "U", "NORAD_CAT_ID": 28220, "ELEMENT_SET_NO": 999, "REV_AT_EPOCH": 18232, "BSTAR": 0.00071891, "MEAN_MOTION_DOT": 0.00019641, "MEAN_MOTION_DDOT": 0}, "tle": {"line1": "1 28220U 04012A   25345.15661198  .00019641  00000+0  71891-3 0  9996", "line2": "2 28220  97.8932  46.6010 0005674 332.2791  27.8144 15.28073699182322"}}, "geometry": {"type": "Point", "coordinates": [-116.64451637833338, 63.99751769777346]}}, {"type": "Feature", "properties": {"norad_id": 28376, "name": "AURA", "group": "resource", "lat": 61.00239452972846, "lon": 130.90001666656954, "alt_km": 683.4175525034079, "timestamp": "2025-12-11T08:58:26.770620+00:00", "meta": {"OBJECT_NAME": "AURA", "OBJECT_ID": "2004-026A", "EPOCH": "2025-12-11T03:30:19.797408", "MEAN_MOTION": 14.60940475, "ECCENTRICITY": 0.0001208, "INCLINATION": 98.3183, "RA_OF_ASC_NODE": 295.3653, "ARG_OF_PERICENTER": 94.2738, "MEAN_ANOMALY": 265.86, "EPHEMERIS_TYPE": 0, "CLASSIFICATION_TYPE": "U", "NORAD_CAT_ID": 28376, "ELEMENT_SET_NO": 999, "REV_AT_EPOCH": 13875, "BSTAR": 0.00035654, "MEAN_MOTION_DOT": 1.699e-05, "MEAN_MOTION_DDOT": 0}, "tle": {"line1": "1 28376U 04026A   25345.14606247  .00001699  00000+0  35654-3 0  9997", "line2": "2 28376  98.3183 295.3653 0001208  94.2738 265.8600 14.60940475138758"}}, "geometry": {"type": "Point", "coordinates": [130.90001666656954, 61.00239452972846]}}]}